{
  "norad_id": 52587,
  "name": "STARLINK-3867",
  "history": [
    {
      "epoch": "2026-03-28T20:31:40.262304Z",
      "apogee_km": 540.8177026954572,
      "perigee_km": 538.6757875302965,
      "latitude_deg": 4.690963220207089e-05,
      "longitude_deg": -101.25150950300696,
      "height_km": 540.8101733842433,
      "semi_major_axis_km": 6917.883745112877,
      "eccentricity": 0.00015481,
      "inclination_deg": 53.2199,
      "raan_deg": 32.936,
      "arg_perigee_deg": 99.0091,
      "mean_anomaly_deg": 261.1077,
      "mean_motion_rev_day": 15.08838902
    },
    {
      "epoch": "2026-03-29T02:53:12.940224Z",
      "apogee_km": 540.7921023105291,
      "perigee_km": 538.7098180345165,
      "latitude_deg": 4.719994312365682e-05,
      "longitude_deg": 161.91227469705845,
      "height_km": 540.7712736464792,
      "semi_major_axis_km": 6917.887960172523,
      "eccentricity": 0.0001505,
      "inclination_deg": 53.2197,
      "raan_deg": 31.7471,
      "arg_perigee_deg": 96.8712,
      "mean_anomaly_deg": 263.2452,
      "mean_motion_rev_day": 15.08837523
    },
    {
      "epoch": "2026-03-30T01:08:36.726720Z",
      "apogee_km": 540.6525880975205,
      "perigee_km": 538.8484030386771,
      "latitude_deg": -2.3275645184437163e-05,
      "longitude_deg": -177.01303398197032,
      "height_km": 540.7042942891838,
      "semi_major_axis_km": 6917.8874955680985,
      "eccentricity": 0.0001304,
      "inclination_deg": 53.2192,
      "raan_deg": 27.585,
      "arg_perigee_deg": 93.6748,
      "mean_anomaly_deg": 266.4393,
      "mean_motion_rev_day": 15.08837675
    },
    {
      "epoch": "2026-03-30T01:08:36.727584Z",
      "apogee_km": 540.6525880975205,
      "perigee_km": 538.8484030386771,
      "latitude_deg": 5.730561758500992e-05,
      "longitude_deg": -177.01297768186234,
      "height_km": 540.7042822643097,
      "semi_major_axis_km": 6917.8874955680985,
      "eccentricity": 0.0001304,
      "inclination_deg": 53.2192,
      "raan_deg": 27.585,
      "arg_perigee_deg": 93.6748,
      "mean_anomaly_deg": 266.4394,
      "mean_motion_rev_day": 15.08837675
    },
    {
      "epoch": "2026-03-30T20:13:14.512512Z",
      "apogee_km": 540.6547001545323,
      "perigee_km": 538.8575698759187,
      "latitude_deg": -4.5787316956216956e-05,
      "longitude_deg": -107.52166183369937,
      "height_km": 540.7215127683144,
      "semi_major_axis_km": 6917.893135015225,
      "eccentricity": 0.00012989,
      "inclination_deg": 53.2191,
      "raan_deg": 24.0173,
      "arg_perigee_deg": 94.4294,
      "mean_anomaly_deg": 265.6846,
      "mean_motion_rev_day": 15.0883583
    },
    {
      "epoch": "2026-03-31T20:04:02.191872Z",
      "apogee_km": 540.81877565986,
      "perigee_km": 538.7074325480871,
      "latitude_deg": -4.3699460186988e-06,
      "longitude_deg": -110.65603782736991,
      "height_km": 540.8849838591397,
      "semi_major_axis_km": 6917.900104103973,
      "eccentricity": 0.0001526,
      "inclination_deg": 53.2214,
      "raan_deg": 19.5609,
      "arg_perigee_deg": 102.3581,
      "mean_anomaly_deg": 257.7582,
      "mean_motion_rev_day": 15.0883355
    },
    {
      "epoch": "2026-04-01T11:57:53.462016Z",
      "apogee_km": 540.796722941297,
      "perigee_km": 538.7075204265475,
      "latitude_deg": -1.7089641262764954e-05,
      "longitude_deg": 7.2517377538946155,
      "height_km": 540.6548937623181,
      "semi_major_axis_km": 6917.889121683922,
      "eccentricity": 0.000151,
      "inclination_deg": 53.2213,
      "raan_deg": 16.5852,
      "arg_perigee_deg": 90.3762,
      "mean_anomaly_deg": 269.7403,
      "mean_motion_rev_day": 15.08837143
    },
    {
      "epoch": "2026-04-02T18:10:12.560448Z",
      "apogee_km": 540.7569030303112,
      "perigee_km": 538.7271973169909,
      "latitude_deg": -1.2247972208818845e-05,
      "longitude_deg": -92.71882210285817,
      "height_km": 540.6022152403085,
      "semi_major_axis_km": 6917.879050173651,
      "eccentricity": 0.0001467,
      "inclination_deg": 53.2195,
      "raan_deg": 10.9347,
      "arg_perigee_deg": 87.9886,
      "mean_anomaly_deg": 272.1274,
      "mean_motion_rev_day": 15.08840438
    },
    {
      "epoch": "2026-04-02T22:56:22.143840Z",
      "apogee_km": 540.7541468194177,
      "perigee_km": 538.7395206893516,
      "latitude_deg": 4.622372280674418e-06,
      "longitude_deg": -165.3468095922482,
      "height_km": 540.6142634704877,
      "semi_major_axis_km": 6917.883833754385,
      "eccentricity": 0.00014561,
      "inclination_deg": 53.2196,
      "raan_deg": 10.0425,
      "arg_perigee_deg": 88.3857,
      "mean_anomaly_deg": 271.7302,
      "mean_motion_rev_day": 15.08838873
    },
    {
      "epoch": "2026-04-03T18:01:00.500736Z",
      "apogee_km": 541.301559180738,
      "perigee_km": 538.230010344304,
      "latitude_deg": 3.603196544956935e-05,
      "longitude_deg": -95.85808441369042,
      "height_km": 540.3920971576467,
      "semi_major_axis_km": 6917.902784762521,
      "eccentricity": 0.000222,
      "inclination_deg": 53.2187,
      "raan_deg": 6.4745,
      "arg_perigee_deg": 79.9374,
      "mean_anomaly_deg": 280.1869,
      "mean_motion_rev_day": 15.08832673
    },
    {
      "epoch": "2026-04-04T03:33:19.362528Z",
      "apogee_km": 540.6493602483433,
      "perigee_km": 538.8754724799992,
      "latitude_deg": -4.4456871817169356e-05,
      "longitude_deg": 118.8820295243307,
      "height_km": 540.9009977823151,
      "semi_major_axis_km": 6917.899416364171,
      "eccentricity": 0.00012821,
      "inclination_deg": 53.2202,
      "raan_deg": 4.685,
      "arg_perigee_deg": 105.8608,
      "mean_anomaly_deg": 254.2525,
      "mean_motion_rev_day": 15.08833775
    },
    {
      "epoch": "2026-04-05T00:13:20.455392Z",
      "apogee_km": 540.5736949888851,
      "perigee_km": 539.0578331792194,
      "latitude_deg": -4.0833770556601884e-05,
      "longitude_deg": 164.16891548282635,
      "height_km": 540.6714700651825,
      "semi_major_axis_km": 6917.9527640840515,
      "eccentricity": 0.00010956,
      "inclination_deg": 53.2197,
      "raan_deg": 0.8252,
      "arg_perigee_deg": 86.9289,
      "mean_anomaly_deg": 273.1828,
      "mean_motion_rev_day": 15.08816322
    },
    {
      "epoch": "2026-04-05T20:53:21.954336Z",
      "apogee_km": 540.631436911417,
      "perigee_km": 539.0652050347489,
      "latitude_deg": -2.5609963988937674e-05,
      "longitude_deg": -150.55208728256628,
      "height_km": 540.5915906000395,
      "semi_major_axis_km": 6917.985320973083,
      "eccentricity": 0.0001132,
      "inclination_deg": 53.219,
      "raan_deg": 356.9592,
      "arg_perigee_deg": 78.7378,
      "mean_anomaly_deg": 281.3741,
      "mean_motion_rev_day": 15.08805671
    },
    {
      "epoch": "2026-04-06T00:04:08.152896Z",
      "apogee_km": 540.6094681632885,
      "perigee_km": 539.0659296484691,
      "latitude_deg": 4.29730728643429e-05,
      "longitude_deg": 161.02899205967432,
      "height_km": 540.6663408966757,
      "semi_major_axis_km": 6917.9746989058785,
      "eccentricity": 0.00011156,
      "inclination_deg": 53.2188,
      "raan_deg": 356.3633,
      "arg_perigee_deg": 84.9797,
      "mean_anomaly_deg": 275.1323,
      "mean_motion_rev_day": 15.08809146
    },
    {
      "epoch": "2026-04-07T09:27:10.958112Z",
      "apogee_km": 540.4372797076658,
      "perigee_km": 539.0315682343144,
      "latitude_deg": -1.8522214606873282e-06,
      "longitude_deg": 12.654429918655241,
      "height_km": 540.7020385983907,
      "semi_major_axis_km": 6917.87142397099,
      "eccentricity": 0.0001016,
      "inclination_deg": 53.2208,
      "raan_deg": 350.1215,
      "arg_perigee_deg": 95.8035,
      "mean_anomaly_deg": 264.3073,
      "mean_motion_rev_day": 15.08842933
    },
    {
      "epoch": "2026-04-07T20:34:55.750080Z",
      "apogee_km": 540.4994776202157,
      "perigee_km": 539.1145052331312,
      "latitude_deg": 4.776791100432962e-06,
      "longitude_deg": -156.82255597350508,
      "height_km": 540.6172716799944,
      "semi_major_axis_km": 6917.943991426673,
      "eccentricity": 0.0001001,
      "inclination_deg": 53.2193,
      "raan_deg": 348.0382,
      "arg_perigee_deg": 82.856,
      "mean_anomaly_deg": 277.2546,
      "mean_motion_rev_day": 15.08819192
    },
    {
      "epoch": "2026-04-08T09:18:00.948672Z",
      "apogee_km": 540.5544117635118,
      "perigee_km": 539.0352339352139,
      "latitude_deg": 8.344917545792317e-06,
      "longitude_deg": 9.504570017375674,
      "height_km": 540.6653611797547,
      "semi_major_axis_km": 6917.931822849363,
      "eccentricity": 0.0001098,
      "inclination_deg": 53.2197,
      "raan_deg": 345.6593,
      "arg_perigee_deg": 88.0562,
      "mean_anomaly_deg": 272.0556,
      "mean_motion_rev_day": 15.08823173
    },
    {
      "epoch": "2026-04-09T09:08:47.186016Z",
      "apogee_km": 540.473711297228,
      "perigee_km": 538.9784843672614,
      "latitude_deg": 5.9624431543557776e-05,
      "longitude_deg": 6.371521850399275,
      "height_km": 540.5421164928433,
      "semi_major_axis_km": 6917.863097832244,
      "eccentricity": 0.00010807,
      "inclination_deg": 53.2192,
      "raan_deg": 341.1982,
      "arg_perigee_deg": 83.8368,
      "mean_anomaly_deg": 276.2748,
      "mean_motion_rev_day": 15.08845657
    },
    {
      "epoch": "2026-04-10T08:59:34.194912Z",
      "apogee_km": 540.5258678728715,
      "perigee_km": 538.9665769945341,
      "latitude_deg": -4.15079337075341e-05,
      "longitude_deg": 3.236337072767525,
      "height_km": 540.5146529895181,
      "semi_major_axis_km": 6917.883222433702,
      "eccentricity": 0.0001127,
      "inclination_deg": 53.2188,
      "raan_deg": 336.7383,
      "arg_perigee_deg": 80.5675,
      "mean_anomaly_deg": 279.5444,
      "mean_motion_rev_day": 15.08839073
    }
  ]
}